     3.00           N                   E                   RINEX VERSION / TYPE
BRD_USR             ESA                 20190114 061713  UTCPGM / RUN BY / DATE
 GAL   3.7500E+01  1.1719E-01 -6.1035E-04  0.0000E+00       IONOSPHERIC CORR
GAUT  1.8626451492E-09-1.776356839E-15  86400 2036 GSTB   0 TIME SYSTEM CORR
GPGA -4.9476511776E-10-6.217248938E-15  86400 2036 GSTB   0 TIME SYSTEM CORR
                                                            END OF HEADER
E04 2019 01 14 04 10 00-1.996165374294E-04-7.858602657507E-12 0.000000000000E+00
     4.100000000000E+01-3.218750000000E+01 3.160488789901E-09 2.123997160002E+00
    -1.447275280952E-06 7.482233922929E-05 1.083314418793E-05 5.440619903564E+03
     1.014000000000E+05-9.313225746155E-09 1.120286965066E+00 2.235174179077E-08
     9.524898956445E-01 1.041250000000E+02 2.144742159063E+00-5.565588971978E-09
    -1.946509651369E-10 5.210000000000E+02 2.036000000000E+03 0.000000000000E+00
     3.120000000000E+00 0.000000000000E+00-8.149072527885E-09-9.080395102501E-09
     1.020850000000E+05 0.000000000000E+00 0.000000000000E+00 0.000000000000E+00
E05 2019 01 14 04 10 00 1.254191738553E-04-6.565414878423E-12 0.000000000000E+00
     4.100000000000E+01-5.175000000000E+01 3.313709457871E-09 1.083871992145E+00
    -2.440065145493E-06 1.341616734862E-04 1.080706715584E-05 5.440617197037E+03
     1.014000000000E+05 5.960464477539E-08 1.120220664156E+00-2.607703208923E-08
     9.524596454245E-01 1.047500000000E+02 1.611640126206E+00-5.670593345831E-09
    -2.442958901901E-10 5.210000000000E+02 2.036000000000E+03 0.000000000000E+00
     3.120000000000E+00 0.000000000000E+00-1.629814505577E-09-1.862645149231E-09
     1.020850000000E+05 0.000000000000E+00 0.000000000000E+00 0.000000000000E+00
E07 2019 01 14 04 10 00-1.121925306506E-04-7.105427357601E-12 0.000000000000E+00
     4.100000000000E+01-3.984375000000E+01 3.213348134562E-09 3.422057093271E-01
    -1.870095729828E-06 1.333503751084E-04 9.885057806969E-06 5.440620666504E+03
     1.014000000000E+05 7.450580596924E-09 1.120236975692E+00 5.029141902924E-08
     9.524902189494E-01 1.250937500000E+02-4.607538025310E-03-5.590590013371E-09
    -9.000374901741E-11 5.210000000000E+02 2.036000000000E+03 0.000000000000E+00
     3.120000000000E+00 0.000000000000E+00 4.656612873077E-10 2.328306436539E-10
     1.020850000000E+05 0.000000000000E+00 0.000000000000E+00 0.000000000000E+00
E09 2019 01 14 04 10 00 6.558873748872E-03-1.128341864387E-11 0.000000000000E+00
     4.100000000000E+01-4.062500000000E+01 3.136916379444E-09-2.891412094234E+00
    -1.875683665276E-06 2.395776100457E-04 1.084432005882E-05 5.440619548798E+03
     1.014000000000E+05 6.519258022308E-08 1.111629430502E+00 2.235174179077E-08
     9.584627575582E-01 1.060312500000E+02 8.734773273796E-02-5.572017811193E-09
    -1.960795960737E-10 5.210000000000E+02 2.036000000000E+03 0.000000000000E+00
     3.120000000000E+00 0.000000000000E+00-3.259629011154E-09-3.958120942116E-09
     1.020850000000E+05 0.000000000000E+00 0.000000000000E+00 0.000000000000E+00
E11 2019 01 14 04 10 00 5.719747394323E-03 6.963318810449E-13 0.000000000000E+00
     4.100000000000E+01 1.271875000000E+01 2.904406694483E-09-3.627974282205E-01
     5.792826414108E-07 2.807280980051E-04 8.411705493927E-06 5.440603832245E+03
     1.014000000000E+05 2.048909664154E-08-9.850980982499E-01 3.166496753693E-08
     9.819645394274E-01 1.702812500000E+02-3.453306032858E-01-5.551302662610E-09
     3.064413359402E-10 5.210000000000E+02 2.036000000000E+03 0.000000000000E+00
     3.120000000000E+00 0.000000000000E+00-1.839362084866E-08-2.002343535423E-08
     1.020850000000E+05 0.000000000000E+00 0.000000000000E+00 0.000000000000E+00
E12 2019 01 14 04 10 00 5.937984911725E-03 8.435563358944E-11 0.000000000000E+00
     4.100000000000E+01 1.712500000000E+01 2.845832826074E-09 9.324769012915E-01
     7.413327693939E-07 4.051340511069E-04 7.649883627892E-06 5.440607320786E+03
     1.014000000000E+05 1.490116119385E-08-9.851134896110E-01 2.793967723846E-08
     9.819790925365E-01 1.851562500000E+02-8.369824176887E-01-5.563088867838E-09
     2.582250418238E-10 5.210000000000E+02 2.036000000000E+03 0.000000000000E+00
     3.120000000000E+00 0.000000000000E+00-1.536682248116E-08-1.583248376846E-08
     1.020850000000E+05 0.000000000000E+00 0.000000000000E+00 0.000000000000E+00
E13 2019 01 14 04 10 00 3.817072720267E-04 4.973799150321E-13 0.000000000000E+00
     4.100000000000E+01 2.062500000000E+00 2.794044954616E-09-2.345246763227E+00
     1.285225152969E-07 3.431303193793E-04 6.975606083870E-06 5.440603523254E+03
     1.014000000000E+05-5.960464477539E-08-9.903818101777E-01-1.676380634308E-08
     9.852065355896E-01 2.020937500000E+02-1.497924766785E+00-5.499514791151E-09
     2.525105180766E-10 5.210000000000E+02 2.036000000000E+03 0.000000000000E+00
     3.120000000000E+00 4.550000000000E+02-4.190951585770E-09-5.355104804039E-09
     1.020850000000E+05 0.000000000000E+00 0.000000000000E+00 0.000000000000E+00
E15 2019 01 14 04 10 00 9.230220457539E-04-1.080024958355E-12 0.000000000000E+00
     4.100000000000E+01-2.000000000000E+00 2.796545058755E-09-1.475563715769E+00
    -1.173466444016E-07 3.890790976584E-04 7.748603820801E-06 5.440596418381E+03
     1.014000000000E+05-2.793967723846E-08-9.903926796590E-01-3.166496753693E-08
     9.851646405416E-01 1.844375000000E+02-1.585323333000E+00-5.465941964137E-09
     2.139374827835E-10 5.210000000000E+02 2.036000000000E+03 0.000000000000E+00
     3.120000000000E+00 4.550000000000E+02 1.396983861923E-09 1.396983861923E-09
     1.020850000000E+05 0.000000000000E+00 0.000000000000E+00 0.000000000000E+00
E18 2019 01 14 04 10 00 5.607856262941E-03-2.853539626813E-11 0.000000000000E+00
     4.100000000000E+01 4.800000000000E+01 4.381968240852E-09-2.126419869374E+00
     2.957880496979E-06 1.662988358876E-01 5.071982741356E-06 5.289373632431E+03
     1.014000000000E+05 2.117827534676E-06-1.570106373667E+00 4.488974809647E-07
     8.818514713049E-01 1.965312500000E+02 1.442444015560E+00-5.437726503135E-09
     7.118153642528E-10 5.210000000000E+02 2.036000000000E+03 0.000000000000E+00
     3.120000000000E+00 4.550000000000E+02 1.396983861923E-08 1.559965312481E-08
     1.020850000000E+05 0.000000000000E+00 0.000000000000E+00 0.000000000000E+00
E19 2019 01 14 04 10 00-9.138253517449E-06 2.700062395888E-13 0.000000000000E+00
     4.100000000000E+01-2.518750000000E+01 3.155845739357E-09 2.745047526614E+00
    -1.221895217896E-06 1.387455267832E-04 1.033954322338E-05 5.440616735458E+03
     1.014000000000E+05 2.235174179077E-08 1.116984682050E+00-5.587935447693E-09
     9.582186726025E-01 1.195000000000E+02 2.384268735163E+00-5.529873198558E-09
    -1.878649681871E-10 5.210000000000E+02 2.036000000000E+03 0.000000000000E+00
     3.120000000000E+00 0.000000000000E+00-8.614733815193E-09-8.847564458847E-09
     1.020850000000E+05 0.000000000000E+00 0.000000000000E+00 0.000000000000E+00
E24 2019 01 14 04 10 00 6.287068594247E-03-1.965361207112E-11 0.000000000000E+00
     4.100000000000E+01 3.881250000000E+01 3.006196648728E-09 8.614544989920E-01
     1.639127731323E-06 4.786016652361E-04 4.597008228302E-06 5.440611799240E+03
     1.014000000000E+05-1.117587089539E-08-3.066923863609E+00 1.303851604462E-08
     9.876713565221E-01 2.527812500000E+02 5.235762856710E-01-5.700237437769E-09
    -7.964617472573E-11 5.210000000000E+02 2.036000000000E+03 0.000000000000E+00
     3.120000000000E+00 0.000000000000E+00 4.284083843231E-08 4.796311259270E-08
     1.020850000000E+05 0.000000000000E+00 0.000000000000E+00 0.000000000000E+00
E26 2019 01 14 04 10 00 5.022113327868E-03-4.327205260779E-11 0.000000000000E+00
     4.100000000000E+01 1.006250000000E+01 3.003696544589E-09-2.642050685616E+00
     5.643814802170E-07 3.170373383909E-04 6.973743438721E-06 5.440608985901E+03
     1.014000000000E+05-7.450580596924E-09-9.814807670478E-01 5.029141902924E-08
     9.783226165724E-01 1.995312500000E+02-1.983199851480E+00-5.622734209449E-09
     2.328668426958E-10 5.210000000000E+02 2.036000000000E+03 0.000000000000E+00
     3.120000000000E+00 0.000000000000E+00 1.164153218269E-09 1.396983861923E-09
     1.020850000000E+05 0.000000000000E+00 0.000000000000E+00 0.000000000000E+00
E27 2019 01 14 04 10 00 5.501412088051E-04-7.673861546209E-12 0.000000000000E+00
     4.100000000000E+01 3.384375000000E+01 2.921193107990E-09-9.292185277615E-01
     1.385807991028E-06 1.783940242603E-04 4.688277840614E-06 5.440625625610E+03
     1.014000000000E+05 5.029141902924E-08-3.072975215467E+00 1.676380634308E-08
     9.896389359883E-01 2.506562500000E+02-8.053337254965E-01-5.658807140603E-09
    -4.393040130612E-11 5.210000000000E+02 2.036000000000E+03 0.000000000000E+00
     3.120000000000E+00 0.000000000000E+00-3.026798367500E-09-3.492459654808E-09
     1.020850000000E+05 0.000000000000E+00 0.000000000000E+00 0.000000000000E+00
E04 2019 01 14 04 10 00-1.996160717681E-04-7.858602657507E-12 0.000000000000E+00
     4.100000000000E+01-3.218750000000E+01 3.160488789901E-09 2.123997160002E+00
    -1.447275280952E-06 7.482233922929E-05 1.083314418793E-05 5.440619903564E+03
     1.014000000000E+05-9.313225746155E-09 1.120286965066E+00 2.235174179077E-08
     9.524898956445E-01 1.041250000000E+02 2.144742159063E+00-5.565588971978E-09
    -1.946509651369E-10 2.580000000000E+02 2.036000000000E+03 0.000000000000E+00
     3.120000000000E+00 0.000000000000E+00-8.149072527885E-09 0.000000000000E+00
     1.021000000000E+05 0.000000000000E+00 0.000000000000E+00 0.000000000000E+00
